{"fetched_at":"2026-03-30T06:02:59Z","count":15439,"tles":[{"name":"STARLINK-30912","line1":"1 58422U 23180W   26087.49425146  .00000052  00000+0  11409-4 0  9998","line2":"2 58422  43.0007 164.0970 0001488 263.0206  97.0477 15.27580510132176","category":"Starlink"}]}