{
  "norad_id": 58422,
  "name": "STARLINK-30912",
  "history": [
    {
      "epoch": "2026-03-28T11:51:43.326144Z",
      "apogee_km": 484.06899346338105,
      "perigee_km": 482.02614436983185,
      "latitude_deg": 4.7846499232041194e-05,
      "longitude_deg": 160.25263318753596,
      "height_km": 482.9485059766937,
      "semi_major_axis_km": 6861.184568916606,
      "eccentricity": 0.00014887,
      "inclination_deg": 43.0007,
      "raan_deg": 164.097,
      "arg_perigee_deg": 263.0206,
      "mean_anomaly_deg": 97.0477,
      "mean_motion_rev_day": 15.2758051
    }
  ]
}